[{"OBJECT_NAME":"STARLINK-32259","OBJECT_ID":"2024-155P","EPOCH":"2026-03-09T11:05:03.865056","MEAN_MOTION":15.30184006,"ECCENTRICITY":0.00011835,"INCLINATION":53.1608,"RA_OF_ASC_NODE":130.8932,"ARG_OF_PERICENTER":80.5241,"MEAN_ANOMALY":279.5894,"EPHEMERIS_TYPE":0,"CLASSIFICATION_TYPE":"U","NORAD_CAT_ID":60937,"ELEMENT_SET_NO":999,"REV_AT_EPOCH":8630,"BSTAR":-7.598145e-6,"MEAN_MOTION_DOT":-5.84e-6,"MEAN_MOTION_DDOT":0},{"OBJECT_NAME":"TEVEL2-5","OBJECT_ID":"2025-052E","EPOCH":"2026-03-09T23:11:54.246048","MEAN_MOTION":15.30817434,"ECCENTRICITY":0.00047002,"INCLINATION":97.4013,"RA_OF_ASC_NODE":325.3677,"ARG_OF_PERICENTER":95.3936,"MEAN_ANOMALY":264.7842,"EPHEMERIS_TYPE":0,"CLASSIFICATION_TYPE":"U","NORAD_CAT_ID":63214,"ELEMENT_SET_NO":999,"REV_AT_EPOCH":5491,"BSTAR":0.00071764727,"MEAN_MOTION_DOT":0.00021339,"MEAN_MOTION_DDOT":0}]
